{"fetched_at":"2026-03-29T16:36:15Z","count":15609,"tles":[{"name":"STARLINK-36087","line1":"1 66854U 25281G   26087.68650509  .00028419  00000+0  10373-2 0  9998","line2":"2 66854  42.9974 235.9480 0001138 277.3749  82.6973 15.27610572 19099","category":"Starlink"}]}