{
  "norad_id": 66854,
  "name": "STARLINK-36087",
  "history": [
    {
      "epoch": "2026-03-28T16:28:34.039776",
      "apogee_km": 483.73841517134224,
      "perigee_km": 482.17669282896077,
      "latitude_deg": -4.370068831828283,
      "longitude_deg": -148.69551135995425,
      "semi_major_axis_km": 6861.094554000151,
      "eccentricity": 0.00011381,
      "inclination_deg": 42.9974,
      "raan_deg": 235.948,
      "arg_perigee_deg": 277.3749,
      "mean_anomaly_deg": 82.6973,
      "mean_motion_rev_day": 15.27610572
    }
  ]
}